OBJECT_NAME,OBJECT_ID,EPOCH,MEAN_MOTION,ECCENTRICITY,INCLINATION,RA_OF_ASC_NODE,ARG_OF_PERICENTER,MEAN_ANOMALY,EPHEMERIS_TYPE,CLASSIFICATION_TYPE,NORAD_CAT_ID,ELEMENT_SET_NO,REV_AT_EPOCH,BSTAR,MEAN_MOTION_DOT,MEAN_MOTION_DDOT
STARLINK-35074,2025-192U,2026-06-11T06:52:56.905536,15.30203067,.00013383,53.1553,157.6429,57.7821,302.3310,0,U,65422,999,4371,.1274585E-3,.3418E-4,0
STARLINK-34837,2025-192V,2026-06-11T05:59:49.750368,15.31713270,.0001686,53.1588,157.4220,96.9692,263.1501,0,U,65423,999,4371,.39101386E-3,.11793E-3,0
STARLINK-34670,2025-192W,2026-06-11T05:32:55.394016,15.31729550,.00013157,53.1571,157.3013,99.0812,261.0339,0,U,65424,999,4371,.33838847E-3,.10159E-3,0
STARLINK-35095,2025-192X,2026-06-11T06:33:55.484640,15.31707023,.0001115,53.1558,157.5655,67.9357,292.1763,0,U,65425,999,4371,.59268767E-3,.18075E-3,0
STARLINK-34883,2025-192Y,2026-06-11T06:13:26.671008,15.30216187,.00010266,53.1575,157.4775,63.5589,296.5517,0,U,65426,999,4370,.72859174E-3,.21292E-3,0
STARLINK-34916,2025-192Z,2026-06-11T06:18:00.056160,15.30192226,.00011791,53.1572,157.4940,81.6652,278.4483,0,U,65427,999,4371,.57846718E-3,.16808E-3,0
STARLINK-35004,2025-192AA,2026-06-11T07:17:15.900864,15.30198608,.00013042,53.1586,157.7467,87.8370,272.2781,0,U,65428,999,4371,.48172934E-3,.13934E-3,0
STARLINK-35014,2025-192AB,2026-06-11T07:24:51.739488,15.30202427,.00011943,53.1594,157.7831,92.1161,267.9976,0,U,65429,999,4371,.39725706E-3,.11425E-3,0
STARLINK-35025,2025-192AC,2026-06-11T05:25:50.264544,15.34388279,.0001112,53.1570,157.2744,104.2370,255.8756,0,U,65430,999,4371,.58164154E-3,.19319E-3,0
STARLINK-35034,2025-192AD,2026-06-11T05:35:36.834144,15.30197360,.00011793,53.1579,158.0197,97.4846,262.6288,0,U,65431,999,4370,.61041102E-3,.17761E-3,0
STARLINK-35142,2025-194A,2026-06-11T14:15:33.143040,15.05655907,.00021287,97.3742,16.0581,89.5708,270.5763,0,U,65434,999,4377,.35860962E-3,.5121E-4,0
STARLINK-34978,2025-194B,2026-06-11T13:07:45.488064,15.05634640,.00007534,97.3795,16.1375,99.4618,260.6695,0,U,65435,999,4377,-.52113729E-3,-.7565E-4,0
STARLINK-35043,2025-194C,2026-06-11T14:12:37.342368,15.04839565,.00026662,97.4771,16.9166,83.7996,276.3534,0,U,65436,999,4380,.18855787E-3,.2605E-4,0
STARLINK-35080,2025-194D,2026-06-11T13:15:43.635168,15.05661132,.00017526,97.3744,16.1297,80.8236,279.3190,0,U,65437,999,4377,.33961644E-3,.4847E-4,0
STARLINK-35068,2025-194E,2026-06-11T14:23:30.343200,15.05657520,.000237,97.3749,16.0662,81.7325,278.4171,0,U,65438,999,4377,.32047339E-3,.457E-4,0
STARLINK-35045,2025-194F,2026-06-11T13:27:42.682752,15.05661357,.00018601,97.3740,16.1173,76.4795,283.6640,0,U,65439,999,4377,.32914854E-3,.4696E-4,0
STARLINK-35050,2025-194G,2026-06-11T14:35:28.874112,15.05657772,.00020831,97.3739,16.2094,84.0183,276.1282,0,U,65440,999,4378,.10014951E-3,.1388E-4,0
STARLINK-35065,2025-194H,2026-06-11T14:07:33.135744,15.05652553,.00022207,97.3756,16.0819,90.8060,269.3422,0,U,65441,999,4377,.39476657E-3,.5643E-4,0
STARLINK-34679,2025-194J,2026-06-11T13:11:44.460096,15.05657559,.00014263,97.3754,16.1361,62.9290,297.2083,0,U,65442,999,4377,.21790139E-3,.3088E-4,0
STARLINK-34678,2025-194K,2026-06-11T13:59:35.046528,15.05658872,.00027178,97.3731,16.0902,85.9942,274.1596,0,U,65443,999,4377,.28855193E-3,.4109E-4,0
STARLINK-35049,2025-194L,2026-06-11T13:39:38.956032,15.05658865,.00022821,97.3745,16.1055,88.8592,271.2897,0,U,65444,999,4377,.28772452E-3,.4097E-4,0
STARLINK-35029,2025-194M,2026-06-11T13:31:40.556640,15.05656140,.0002293,97.3753,16.1127,92.3706,267.7784,0,U,65445,999,4377,.20081256E-3,.2842E-4,0
STARLINK-34991,2025-194N,2026-06-11T13:19:42.850848,15.05662431,.00019972,97.3742,16.1259,81.8816,278.2638,0,U,65446,999,4377,.37529298E-3,.5363E-4,0
STARLINK-34920,2025-194P,2026-06-11T13:03:46.094400,15.05661331,.00022532,97.3733,16.1429,84.9094,275.2390,0,U,65447,999,4377,.50380613E-3,.7221E-4,0
STARLINK-35030,2025-194Q,2026-06-11T15:23:19.547808,15.05656889,.0002799,97.3727,16.1627,92.2614,267.8933,0,U,65448,999,4378,.31794E-3,.4534E-4,0
STARLINK-35009,2025-194R,2026-06-11T14:27:30.352032,15.05655696,.0002016,97.3732,16.2177,88.8395,271.3064,0,U,65449,999,4378,.24936E-3,.3543E-4,0
STARLINK-34970,2025-194S,2026-06-11T14:19:31.054080,15.05653324,.0002023,97.3748,16.0719,97.5391,262.6066,0,U,65450,999,4377,.18862E-3,.2665E-4,0
STARLINK-35039,2025-194T,2026-06-11T13:35:39.807744,15.05658608,.0002548,97.3741,16.1108,81.3869,278.7647,0,U,65451,999,4377,.27153E-3,.3863E-4,0
STARLINK-35084,2025-194U,2026-06-11T13:55:37.696224,15.05657796,.000276,97.3741,16.0941,96.2898,263.8644,0,U,65452,999,4377,.34088E-3,.4865E-4,0
STARLINK-34988,2025-194V,2026-06-11T14:10:37.839072,15.04840859,.0002386,97.4757,17.2140,88.1891,271.9609,0,U,65453,999,4382,.23888E-3,.3316E-4,0
