STARLINK-35074          
1 65422U 25192U   26162.28676974  .00003418  00000+0  12746-3 0  9992
2 65422  53.1553 157.6429 0001338  57.7821 302.3310 15.30203067 43716
STARLINK-34837          
1 65423U 25192V   26162.24988137  .00011793  00000+0  39101-3 0  9995
2 65423  53.1588 157.4220 0001686  96.9692 263.1501 15.31713270 43718
STARLINK-34670          
1 65424U 25192W   26162.23119669  .00010159  00000+0  33839-3 0  9998
2 65424  53.1571 157.3013 0001315  99.0812 261.0339 15.31729550 43711
STARLINK-35095          
1 65425U 25192X   26162.27355885  .00018075  00000+0  59269-3 0  9995
2 65425  53.1558 157.5655 0001115  67.9357 292.1763 15.31707023 43714
STARLINK-34883          
1 65426U 25192Y   26162.25933647  .00021292  00000+0  72859-3 0  9997
2 65426  53.1575 157.4775 0001026  63.5589 296.5517 15.30216187 43705
STARLINK-34916          
1 65427U 25192Z   26162.26250065  .00016808  00000+0  57847-3 0  9992
2 65427  53.1572 157.4940 0001179  81.6652 278.4483 15.30192226 43717
STARLINK-35004          
1 65428U 25192AA  26162.30365626  .00013934  00000+0  48173-3 0  9997
2 65428  53.1586 157.7467 0001304  87.8370 272.2781 15.30198608 43718
STARLINK-35014          
1 65429U 25192AB  26162.30893217  .00011425  00000+0  39726-3 0  9997
2 65429  53.1594 157.7831 0001194  92.1161 267.9976 15.30202427 43719
STARLINK-35025          
1 65430U 25192AC  26162.22627621  .00019319  00000+0  58164-3 0  9991
2 65430  53.1570 157.2744 0001112 104.2370 255.8756 15.34388279 43716
STARLINK-35034          
1 65431U 25192AD  26162.23306521  .00017761  00000+0  61041-3 0  9993
2 65431  53.1579 158.0197 0001179  97.4846 262.6288 15.30197360 43701
STARLINK-35142          
1 65434U 25194A   26162.59413360  .00005121  00000+0  35861-3 0  9995
2 65434  97.3742  16.0581 0002128  89.5708 270.5763 15.05655907 43771
STARLINK-34978          
1 65435U 25194B   26162.54705426 -.00007565  00000+0 -52114-3 0  9994
2 65435  97.3795  16.1375 0000753  99.4618 260.6695 15.05634640 43779
STARLINK-35043          
1 65436U 25194C   26162.59209887  .00002605  00000+0  18856-3 0  9993
2 65436  97.4771  16.9166 0002666  83.7996 276.3534 15.04839565 43803
STARLINK-35080          
1 65437U 25194D   26162.55258837  .00004847  00000+0  33962-3 0  9994
2 65437  97.3744  16.1297 0001752  80.8236 279.3190 15.05661132 43771
STARLINK-35068          
1 65438U 25194E   26162.59965675  .00004570  00000+0  32047-3 0  9990
2 65438  97.3749  16.0662 0002370  81.7325 278.4171 15.05657520 43773
STARLINK-35045          
1 65439U 25194F   26162.56091068  .00004696  00000+0  32915-3 0  9997
2 65439  97.3740  16.1173 0001860  76.4795 283.6640 15.05661357 43770
STARLINK-35050          
1 65440U 25194G   26162.60797308  .00001388  00000+0  10015-3 0  9996
2 65440  97.3739  16.2094 0002083  84.0183 276.1282 15.05657772 43783
STARLINK-35065          
1 65441U 25194H   26162.58857796  .00005643  00000+0  39477-3 0  9993
2 65441  97.3756  16.0819 0002220  90.8060 269.3422 15.05652553 43779
STARLINK-34679          
1 65442U 25194J   26162.54982014  .00003088  00000+0  21790-3 0  9992
2 65442  97.3754  16.1361 0001426  62.9290 297.2083 15.05657559 43777
STARLINK-34678          
1 65443U 25194K   26162.58304452  .00004109  00000+0  28855-3 0  9995
2 65443  97.3731  16.0902 0002717  85.9942 274.1596 15.05658872 43778
STARLINK-35049          
1 65444U 25194L   26162.56920088  .00004097  00000+0  28772-3 0  9997
2 65444  97.3745  16.1055 0002282  88.8592 271.2897 15.05658865 43778
STARLINK-35029          
1 65445U 25194M   26162.56366385  .00002842  00000+0  20081-3 0  9993
2 65445  97.3753  16.1127 0002293  92.3706 267.7784 15.05656140 43776
STARLINK-34991          
1 65446U 25194N   26162.55535707  .00005363  00000+0  37529-3 0  9995
2 65446  97.3742  16.1259 0001997  81.8816 278.2638 15.05662431 43771
STARLINK-34920          
1 65447U 25194P   26162.54428350  .00007221  00000+0  50381-3 0  9996
2 65447  97.3733  16.1429 0002253  84.9094 275.2390 15.05661331 43779
STARLINK-35030          
1 65448U 25194Q   26162.64119847  .00004534  00000+0  31794-3 0  9997
2 65448  97.3727  16.1627 0002799  92.2614 267.8933 15.05656889 43781
STARLINK-35009          
1 65449U 25194R   26162.60243463  .00003543  00000+0  24936-3 0  9995
2 65449  97.3732  16.2177 0002016  88.8395 271.3064 15.05655696 43788
STARLINK-34970          
1 65450U 25194S   26162.59688720  .00002665  00000+0  18862-3 0  9999
2 65450  97.3748  16.0719 0002023  97.5391 262.6066 15.05653324 43778
STARLINK-35039          
1 65451U 25194T   26162.56643296  .00003863  00000+0  27153-3 0  9990
2 65451  97.3741  16.1108 0002548  81.3869 278.7647 15.05658608 43771
STARLINK-35084          
1 65452U 25194U   26162.58029741  .00004865  00000+0  34088-3 0  9994
2 65452  97.3741  16.0941 0002760  96.2898 263.8644 15.05657796 43778
STARLINK-34988          
1 65453U 25194V   26162.59071573  .00003316  00000+0  23888-3 0  9992
2 65453  97.4757  17.2140 0002386  88.1891 271.9609 15.04840859 43828
